C/2018 R4 (Fuls),e,11.6828,298.4593,345.1532,298.3708,0.0001912,0.99427037,0.0000,03/03.6248/2018,2000,g 14.0,4.0
# From MPC112393
C/2018 R5 (Lemmon),e,103.7564,171.1416,178.0137,22.86444,0.0090149,0.84162065,0.2345,02/05.0/2019,2000,g 11.5,4.0
# From MPEC 2018-W42
C/2018 U1 (Lemmon),h,10/31.9809/2021,108.3006,75.4844,180.4194,1.003110,4.987066,2000,5.0,4.0
# From MPEC 2018-W46
C/2018 V1 (Machholz-Fujikawa-Iwamoto),p,12/03.5105/2018,143.9939,88.7770,0.386980,128.7145,2000,12.0,4.0
# From MPEC 2018-X10
C/2018 V2 (ATLAS),e,159.1106,356.7877,318.6579,25.66826,0.0075790,0.90357845,0.5307,02/05.0/2019,2000,g 14.5,4.0
# From MPEC 2018-W18
P/2018 VN2 (Leonard),e,18.0101,226.3691,139.1369,4.036961,0.1215129,0.47641455,359.9793,06/07.0/2018,2000,g 15.0,4.0
# From 0 0. E2018-X12
A/2018 V3 (                 K1925 359.9),e,164.9771,308.6585,3.4265,130.5185,0.0006610,0.98972453,0.0000,09/08.6508/2019,2000,g990.1,0.0
# From MPEC 2018-X13
C/2018 V4 (Africano),e,69.0307,78.3724,0.0514,240.6796,0.0002640,0.98670724,0.0000,03/01.8527/2019,2000,g 12.5,4.0
# From MPEC 2019-C18
P/2018 V5 (Trujillo-Sheppard),e,10.5800,171.3204,260.7935,8.959656,0.0367508,0.47457834,4.5684,02/05.0/2019,2000,g 12.5,4.0
# From MPEC 2018-XD6
C/2018 W1 (Catalina),e,83.2778,233.5899,251.2482,21.82922,0.0096638,0.93769136,359.0737,02/05.0/2019,2000,g 15.7,2.0
# From MPEC 2018-Y71
C/2018 W2 (Africano),e,116.6127,181.8349,158.0875,888.2977,0.0000372,0.99836400,0.0000,09/06.0394/2019,2000,g  9.5,4.0
# From MPEC 2018-Y70
C/2018 X2 (Fitzsimmons),e,23.0656,340.8515,161.9936,138.5685,0.0006042,0.98464886,0.0000,07/08.5649/2019,2000,g 12.0,4.0
# From MPEC 2018-Y24
C/2018 X3 (PANSTARRS),e,43.3693,78.9249,359.8326,12.41635,0.0225275,0.78263568,0.8156,02/05.0/2019,2000,g 14.5,4.0
# From MPEC 2019-C15
C/2018 Y1 (Iwamoto),e,160.4004,147.4820,358.0504,122.9055,0.0007233,0.98952922,0.0000,02/07.0227/2019,2000,g 11.5,4.0
# From MPEC 2019-C14
P/2018 Y2 (Africano),e,11.6866,297.2567,162.4410,7.475954,0.0482174,0.47907542,1.6308,02/05.0/2019,2000,g 11.5,4.0
# From MPEC 2019-AA1
P/2019 A1 (PANSTARRS),e,13.7439,312.2995,150.8541,5.128897,0.0848532,0.56877207,9.9229,02/05.0/2019,2000,g 16.0,4.0
# From MPEC 2019-C13
P/2019 A2 (ATLAS),e,14.8562,139.4612,324.2528,5.732876,0.0718034,0.38197415,5.4147,02/05.0/2019,2000,g 10.5,4.0
# From MPEC 2019-AG6
P/2019 A3 (PANSTARRS),e,15.3664,31.3339,325.4758,3.147353,0.1765168,0.26496919,33.0410,02/05.0/2019,2000,g  9.0,4.0
# From MPEC 2019-C12
P/2019 A4 (PANSTARRS),e,13.2880,119.3127,341.7406,2.612372,0.2334272,0.09009843,14.4749,02/05.0/2019,2000,g 15.0,4.0
# From MPEC 2019-B45
C/2019 A5 (PANSTARRS),p,10/13.9768/2017,55.7700,287.0819,4.537253,149.9686,2000,10.0,4.0
# From MPEC 2019-B46
P/2019 A6 (Lemmon-PANSTARRS),e,33.2218,280.2654,156.2944,5.373017,0.0791365,0.63929468,12.6372,02/05.0/2019,2000,g 16.0,4.0
# From MPEC 2019-B66
P/2019 A7 (PANSTARRS),e,17.7734,280.5221,119.5104,3.187963,0.1731547,0.16072455,68.0631,02/05.0/2019,2000,g 13.5,4.0
# From MPEC 2019-C20
P/2019 A8 (PANSTARRS),e,2.9639,127.5235,18.7186,3.153261,0.1760208,0.41208954,28.5355,02/05.0/2019,2000,g 16.0,4.0
# From MPEC 2019-C11
C/2019 B1 (Africano),e,123.3523,290.4458,174.9212,129.4096,0.0006695,0.98765961,0.0000,03/19.9754/2019,2000,g 16.0,4.0
# From MPEC 2019-C21
P/2019 B2 (Groeller),e,16.8367,176.4394,358.9164,3.854284,0.1302532,0.37340733,343.9034,02/05.0/2019,2000,g 14.5,4.0
# From AJ 98, 1083
1P/Halley,e,162.3366,57.9854,110.9138,17.86348,0.0130543,0.96661524,157.6922,02/05.0/2019,2000,g  5.5,3.2
# From MPC105240
2P/Encke,e,11.7693,334.5607,186.5668,2.214740,0.2990335,0.84810104,208.4360,02/05.0/2019,2000,g 11.5,6.0
# From MPC 92275
4P/Faye,e,8.1669,194.8411,205.9650,3.797945,0.1331622,0.58459102,234.2613,02/05.0/2019,2000,g  8.0,6.0
# From MPC 95735
6P/d'Arrest,e,19.5013,138.9209,178.0586,3.499665,0.1505443,0.61207326,216.0687,02/05.0/2019,2000,g  7.5,16.0
# From MPC 92984
7P/Pons-Winnecke,e,22.3629,93.3802,172.5263,3.417057,0.1560363,0.63844968,228.6212,02/05.0/2019,2000,g 10.0,6.0
# From MPC 75715
8P/Tuttle,e,54.9151,270.2113,207.5218,5.695572,0.0725100,0.81987948,292.1960,02/05.0/2019,2000,g  8.0,8.0
# From MPC 84319
9P/Tempel,e,10.4752,68.7386,179.2787,3.147213,0.1765285,0.50971132,161.7236,02/05.0/2019,2000,g  5.5,10.0
# From MPC 92984
10P/Tempel,e,12.0376,117.8005,195.4874,3.061782,0.1839682,0.53807017,216.7804,02/05.0/2019,2000,g  5.0,10.0
# From MPC105240
11P/Tempel-Swift-LINEAR,e,14.5858,239.2187,167.0120,3.307741,0.1638350,0.57806247,252.2704,02/05.0/2019,2000,g 17.0,4.0
# From QJ 27, 604
12P/Pons-Brooks,e,74.0529,255.6899,199.1159,17.01746,0.0140398,0.95424489,333.2834,02/05.0/2019,2000,g  5.0,6.0
# From QJ 27, 604
13P/Olbers,e,44.6275,85.8390,64.6535,16.64365,0.0145155,0.92998511,331.3631,02/05.0/2019,2000,g  5.0,6.0
# From MPC 10028
14P/Wolf,e,27.9002,202.1114,158.9990,4.260139,0.1120904,0.35621642,48.2076,02/05.0/2019,2000,g  5.5,12.0
# From MPC 91617
15P/Finlay,e,6.7965,13.7200,347.8597,3.502938,0.1503334,0.71673095,226.2104,02/05.0/2019,2000,g 12.0,4.0
# From MPC 92276
16P/Brooks,e,2.9976,139.5641,245.0197,3.645875,0.1415799,0.49197205,246.6050,02/05.0/2019,2000,g  7.5,10.0
# From MPC 83523
17P/Holmes,e,19.0259,326.7038,24.6568,3.631847,0.1424009,0.42836269,253.7182,02/05.0/2019,2000,g 10.0,6.0
# From MPC 92984
19P/Borrelly,e,31.1853,74.9792,353.1776,3.576587,0.1457139,0.63516014,196.5089,02/05.0/2019,2000,g  4.5,10.0
# From MPC111773
21P/Giacobini-Zinner,e,31.9976,195.3907,172.8579,3.497323,0.1506956,0.71041290,22.2615,02/05.0/2019,2000,g  9.0,6.0
# From MPC 94283
22P/Kopff,e,4.7400,120.8383,162.9092,3.444467,0.1541775,0.54858966,184.7192,02/05.0/2019,2000,g  3.0,10.4
# From MPC 14747
23P/Brorsen-Metcalf,e,19.2218,312.0672,129.1765,16.96140,0.0141095,0.97086502,0.0000,08/28.2073/1989,2000,g  7.8,3.2
# From MPC110085
24P/Schaumasse,e,11.7440,79.6261,57.9680,4.082836,0.1194706,0.70528352,53.1520,02/05.0/2019,2000,g  6.5,14.0
# From MPC 94674
26P/Grigg-Skjellerup,e,22.4494,211.5318,2.1955,3.014144,0.1883467,0.64094341,23.7666,02/05.0/2019,2000,g 12.0,16.0
# From MPC 78188
27P/Crommelin,e,29.0999,250.5705,196.0408,9.199025,0.0353257,0.91794259,97.1233,02/05.0/2019,2000,g 12.0,8.0
# From MPC 75715
28P/Neujmin,e,14.3107,346.3445,347.4521,6.961393,0.0536611,0.77327417,318.8843,02/05.0/2019,2000,g  8.5,6.0
# From MPC111773
29P/Schwassmann-Wachmann,e,9.3687,312.3967,47.7839,6.025560,0.0666358,0.04294022,357.9399,02/05.0/2019,2000,g  4.0,4.0
# From MPC110085
30P/Reinmuth,e,8.1533,119.4691,13.4657,3.773505,0.1344580,0.50407209,71.8163,02/05.0/2019,2000,g  9.5,6.0
# From MPC108597
31P/Schwassmann-Wachmann,e,4.5468,114.1113,18.3635,4.245218,0.1126819,0.19312677,342.9645,02/05.0/2019,2000,g  5.0,8.0
# From MPC 92276
32P/Comas Sola,e,9.9567,57.7624,53.2687,4.501336,0.1032029,0.55583644,162.2881,02/05.0/2019,2000,g  6.5,8.0
# From MPC 84320
33P/Daniel,e,22.4548,66.3619,20.3695,4.063807,0.1203108,0.45912192,107.8875,02/05.0/2019,2000,g 10.0,12.0
# From QJ 15, 452
35P/Herschel-Rigollet,e,64.0549,355.9616,29.2565,28.57228,0.0064534,0.97314142,0.0000,01/07.1232/2092,2000,g  8.5,4.0
# From MPC105240
36P/Whipple,e,9.9517,181.8730,200.6511,4.131049,0.1173853,0.26825867,303.5165,02/05.0/2019,2000,g  8.5,6.0
# From MPC110085
37P/Forbes,e,8.9561,314.5867,329.9985,3.457025,0.1533382,0.53415786,42.4519,02/05.0/2019,2000,g 10.5,4.8
# From MPC111773
38P/Stephan-Oterma,e,18.3532,77.9998,359.5811,11.28921,0.0259842,0.85928286,2.2353,02/05.0/2019,2000,g  3.5,12.0
# From MPC 75716
39P/Oterma,e,1.5600,299.2510,94.5677,7.416349,0.0487999,0.22291730,284.1503,02/05.0/2019,2000,g  5.0,6.0
# From MPC 10028
40P/Vaisala,e,11.4768,133.8129,47.4402,4.948115,0.0895456,0.63085350,138.1472,02/05.0/2019,2000,g  5.5,12.0
# From MPC105240
41P/Tuttle-Giacobini-Kresak,e,9.2245,141.0304,62.2256,3.084868,0.1819069,0.66088214,120.6635,02/05.0/2019,2000,g 10.0,16.0
# From MPC 94283
42P/Neujmin,e,3.9861,150.2321,147.0948,4.873320,0.0916150,0.58507895,128.0591,02/05.0/2019,2000,g 13.0,6.0
# From MPC102956
43P/Wolf-Harrington,e,19.4244,249.0519,194.0473,3.342856,0.1612603,0.63525644,135.1436,02/05.0/2019,2000,g  8.0,6.0
# From MPC 89313
44P/Reinmuth,e,5.8980,286.4751,58.1340,3.689830,0.1390575,0.42650440,196.6933,02/05.0/2019,2000,g  8.3,6.0
# From MPC103849
45P/Honda-Mrkos-Pajdusakova,e,4.3249,87.7092,327.9883,3.047030,0.1853058,0.81939826,142.1430,02/05.0/2019,2000,g 13.5,8.0
# From MPEC 2018-Y74
46P/Wirtanen,e,11.7451,82.1536,356.3606,3.092491,0.1812347,0.65872726,9.7969,02/05.0/2019,2000,g 14.0,6.0
# From NK 2718
47P/Ashbrook-Jackson,e,13.0288,356.9562,357.6256,4.126695,0.1175711,0.31733566,71.1282,02/05.0/2019,2000,g  1.0,11.2
# From MPC 94675
48P/Johnson,e,12.2069,110.1316,216.5709,3.498639,0.1506106,0.42704767,26.6249,02/05.0/2019,2000,g 10.0,6.0
# From MPC 94675
49P/Arend-Rigaux,e,19.0432,118.8234,332.8917,3.568671,0.1461990,0.59937638,29.8984,02/05.0/2019,2000,g 11.3,4.4
# From MPC 95735
50P/Arend,e,19.0981,355.1572,49.4095,4.090063,0.1191541,0.52860992,130.3615,02/05.0/2019,2000,g  9.5,6.0
# From NK 3014
51P-A/Harrington,e,5.4246,83.6954,269.1978,3.710772,0.1378820,0.54237491,175.4929,02/05.0/2019,2000,g 10.0,8.0
# From NK 3013
51P-D/Harrington,e,5.4254,83.6801,269.2367,3.709767,0.1379381,0.54230871,175.7144,02/05.0/2019,2000,g 16.0,8.0
# From MPC 88330
52P/Harrington-Abell,e,10.2308,336.8373,139.6301,3.860996,0.1299137,0.53946636,233.5020,02/05.0/2019,2000,g 13.5,6.0
# From MPC 10028
53P/Van Biesbroeck,e,6.6068,148.8844,134.2821,5.420840,0.0780916,0.55230777,78.9191,02/05.0/2019,2000,g  7.7,4.8
# From NK 2713
54P/de Vico-Swift-NEAT,e,6.0576,358.8326,1.7978,3.795315,0.1333007,0.42475489,88.0671,02/05.0/2019,2000,g 10.0,6.0
# From MPC 31070
55P/Tempel-Tuttle,e,162.3376,235.4059,172.5864,10.34097,0.0296389,0.90703993,226.9873,02/05.0/2019,2000,g 10.0,10.0
# From MPC101100
56P/Slaughter-Burnham,e,8.1512,345.9726,44.1220,5.076417,0.0861724,0.50621003,80.3097,02/05.0/2019,2000,g  8.5,6.0
# From MPC 98565
